{
  "type": "FeatureCollection",
  "features": [
    {
      "type": "Feature",
      "properties": {
        "norad_id": 43719,
        "name": "HYSIS",
        "group": "resource",
        "lat": -5.626447779585124,
        "lon": 47.9911294402634,
        "alt_km": 636.8528483384416,
        "timestamp": "2025-12-10T04:57:29.263322+00:00",
        "meta_object_name": "HYSIS",
        "meta_object_id": "2018-096A",
        "meta_epoch": "2025-12-09T20:51:47.598624",
        "meta_mean_motion": 14.78631334,
        "meta_eccentricity": 0.0001491,
        "meta_inclination": 98.0096,
        "meta_ra_of_asc_node": 46.8607,
        "meta_arg_of_pericenter": 56.2997,
        "meta_mean_anomaly": 303.8355,
        "meta_ephemeris_type": 0,
        "meta_classification_type": "U",
        "meta_norad_cat_id": 43719,
        "meta_element_set_no": 999,
        "meta_rev_at_epoch": 37944,
        "meta_bstar": 0.00024078,
        "meta_mean_motion_dot": 1.711e-05,
        "meta_mean_motion_ddot": 0,
        "tle_line1": "1 43719U 18096A   25343.86930091  .00001711  00000+0  24078-3 0  9994",
        "tle_line2": "2 43719  98.0096  46.8607 0001491  56.2997 303.8355 14.78631334379446"
      },
      "geometry": {
        "type": "Point",
        "coordinates": [
          47.9911294402634,
          -5.626447779585124
        ]
      }
    },
    {
      "type": "Feature",
      "properties": {
        "norad_id": 43783,
        "name": "KAZSTSAT",
        "group": "resource",
        "lat": 41.73831742565182,
        "lon": 12.79089990775745,
        "alt_km": 563.5595487207747,
        "timestamp": "2025-12-10T04:57:29.263333+00:00",
        "meta_object_name": "KAZSTSAT",
        "meta_object_id": "2018-099AB",
        "meta_epoch": "2025-12-09T12:45:13.516416",
        "meta_mean_motion": 14.99338471,
        "meta_eccentricity": 0.000607,
        "meta_inclination": 97.4557,
        "meta_ra_of_asc_node": 18.8541,
        "meta_arg_of_pericenter": 343.5366,
        "meta_mean_anomaly": 16.566,
        "meta_ephemeris_type": 0,
        "meta_classification_type": "U",
        "meta_norad_cat_id": 43783,
        "meta_element_set_no": 999,
        "meta_rev_at_epoch": 38288,
        "meta_bstar": 0.00022079,
        "meta_mean_motion_dot": 2.643e-05,
        "meta_mean_motion_ddot": 0,
        "tle_line1": "1 43783U 18099AB  25343.53140644  .00002643  00000+0  22079-3 0  9993",
        "tle_line2": "2 43783  97.4557  18.8541 0006070 343.5366  16.5660 14.99338471382886"
      },
      "geometry": {
        "type": "Point",
        "coordinates": [
          12.79089990775745,
          41.73831742565182
        ]
      }
    },
    {
      "type": "Feature",
      "properties": {
        "norad_id": 43831,
        "name": "SAUDISAT 5A",
        "group": "resource",
        "lat": -35.46255104048254,
        "lon": -140.81855883902534,
        "alt_km": 500.74637141342737,
        "timestamp": "2025-12-10T04:57:29.263343+00:00",
        "meta_object_name": "SAUDISAT 5A",
        "meta_object_id": "2018-102A",
        "meta_epoch": "2025-12-09T20:08:44.688768",
        "meta_mean_motion": 15.25600424,
        "meta_eccentricity": 0.0011834,
        "meta_inclination": 97.3352,
        "meta_ra_of_asc_node": 44.0861,
        "meta_arg_of_pericenter": 85.1064,
        "meta_mean_anomaly": 275.1525,
        "meta_ephemeris_type": 0,
        "meta_classification_type": "U",
        "meta_norad_cat_id": 43831,
        "meta_element_set_no": 999,
        "meta_rev_at_epoch": 38678,
        "meta_bstar": 0.00039335,
        "meta_mean_motion_dot": 9.946e-05,
        "meta_mean_motion_ddot": 0,
        "tle_line1": "1 43831U 18102A   25343.83940612  .00009946  00000+0  39335-3 0  9994",
        "tle_line2": "2 43831  97.3352  44.0861 0011834  85.1064 275.1525 15.25600424386782"
      },
      "geometry": {
        "type": "Point",
        "coordinates": [
          -140.81855883902534,
          -35.46255104048254
        ]
      }
    },
    {
      "type": "Feature",
      "properties": {
        "norad_id": 43833,
        "name": "SAUDISAT 5B",
        "group": "resource",
        "lat": -80.90984284320027,
        "lon": 173.45733815546458,
        "alt_km": 503.87551213688585,
        "timestamp": "2025-12-10T04:57:29.263354+00:00",
        "meta_object_name": "SAUDISAT 5B",
        "meta_object_id": "2018-102C",
        "meta_epoch": "2025-12-09T19:56:00.568896",
        "meta_mean_motion": 15.25953371,
        "meta_eccentricity": 0.0012531,
        "meta_inclination": 97.3446,
        "meta_ra_of_asc_node": 46.8108,
        "meta_arg_of_pericenter": 87.4564,
        "meta_mean_anomaly": 272.8109,
        "meta_ephemeris_type": 0,
        "meta_classification_type": "U",
        "meta_norad_cat_id": 43833,
        "meta_element_set_no": 999,
        "meta_rev_at_epoch": 38689,
        "meta_bstar": 0.00034659,
        "meta_mean_motion_dot": 8.849e-05,
        "meta_mean_motion_ddot": 0,
        "tle_line1": "1 43833U 18102C   25343.83056214  .00008849  00000+0  34659-3 0  9997",
        "tle_line2": "2 43833  97.3446  46.8108 0012531  87.4564 272.8109 15.25953371386893"
      },
      "geometry": {
        "type": "Point",
        "coordinates": [
          173.45733815546458,
          -80.90984284320027
        ]
      }
    },
    {
      "type": "Feature",
      "properties": {
        "norad_id": 44622,
        "name": "GAOFEN-10R",
        "group": "resource",
        "lat": -60.12996388749697,
        "lon": 97.47828314250819,
        "alt_km": 633.1955407030073,
        "timestamp": "2025-12-10T04:57:29.263364+00:00",
        "meta_object_name": "GAOFEN-10R",
        "meta_object_id": "2019-066A",
        "meta_epoch": "2025-12-09T21:23:45.973248",
        "meta_mean_motion": 14.8277763,
        "meta_eccentricity": 0.0008012,
        "meta_inclination": 98.0276,
        "meta_ra_of_asc_node": 291.3867,
        "meta_arg_of_pericenter": 49.9015,
        "meta_mean_anomaly": 310.2899,
        "meta_ephemeris_type": 0,
        "meta_classification_type": "U",
        "meta_norad_cat_id": 44622,
        "meta_element_set_no": 999,
        "meta_rev_at_epoch": 33432,
        "meta_bstar": 0.00037612,
        "meta_mean_motion_dot": 2.988e-05,
        "meta_mean_motion_ddot": 0,
        "tle_line1": "1 44622U 19066A   25343.89150432  .00002988  00000+0  37612-3 0  9997",
        "tle_line2": "2 44622  98.0276 291.3867 0008012  49.9015 310.2899 14.82777630334329"
      },
      "geometry": {
        "type": "Point",
        "coordinates": [
          97.47828314250819,
          -60.12996388749697
        ]
      }
    },
    {
      "type": "Feature",
      "properties": {
        "norad_id": 44804,
        "name": "CARTOSAT-3",
        "group": "resource",
        "lat": 70.82693475124573,
        "lon": 21.689673000429536,
        "alt_km": 492.12621696372844,
        "timestamp": "2025-12-10T04:57:29.263375+00:00",
        "meta_object_name": "CARTOSAT-3",
        "meta_object_id": "2019-081A",
        "meta_epoch": "2025-12-09T20:44:17.866752",
        "meta_mean_motion": 15.19327559,
        "meta_eccentricity": 0.0013965,
        "meta_inclination": 97.4579,
        "meta_ra_of_asc_node": 43.4834,
        "meta_arg_of_pericenter": 95.6764,
        "meta_mean_anomaly": 264.6064,
        "meta_ephemeris_type": 0,
        "meta_classification_type": "U",
        "meta_norad_cat_id": 44804,
        "meta_element_set_no": 999,
        "meta_rev_at_epoch": 33472,
        "meta_bstar": 0.00019509,
        "meta_mean_motion_dot": 4.062e-05,
        "meta_mean_motion_ddot": 0,
        "tle_line1": "1 44804U 19081A   25343.86409568  .00004062  00000+0  19509-3 0  9990",
        "tle_line2": "2 44804  97.4579  43.4834 0013965  95.6764 264.6064 15.19327559334724"
      },
      "geometry": {
        "type": "Point",
        "coordinates": [
          21.689673000429536,
          70.82693475124573
        ]
      }
    },
    {
      "type": "Feature",
      "properties": {
        "norad_id": 44819,
        "name": "GAOFEN-12 01",
        "group": "resource",
        "lat": 12.217462195769366,
        "lon": 172.25767373234967,
        "alt_km": 628.471860127228,
        "timestamp": "2025-12-10T04:57:29.263385+00:00",
        "meta_object_name": "GAOFEN-12 01",
        "meta_object_id": "2019-082A",
        "meta_epoch": "2025-12-09T20:05:39.150816",
        "meta_mean_motion": 14.8065246,
        "meta_eccentricity": 0.0001207,
        "meta_inclination": 97.8127,
        "meta_ra_of_asc_node": 350.1944,
        "meta_arg_of_pericenter": 252.4772,
        "meta_mean_anomaly": 107.6309,
        "meta_ephemeris_type": 0,
        "meta_classification_type": "U",
        "meta_norad_cat_id": 44819,
        "meta_element_set_no": 999,
        "meta_rev_at_epoch": 32607,
        "meta_bstar": 0.00012512,
        "meta_mean_motion_dot": 9.1e-06,
        "meta_mean_motion_ddot": 0,
        "tle_line1": "1 44819U 19082A   25343.83725869  .00000910  00000+0  12512-3 0  9994",
        "tle_line2": "2 44819  97.8127 350.1944 0001207 252.4772 107.6309 14.80652460326077"
      },
      "geometry": {
        "type": "Point",
        "coordinates": [
          172.25767373234967,
          12.217462195769366
        ]
      }
    }
  ]
}